#aV2021  8  4  0  0  0.00000000     288 DD+AD WGS84 FIT  NGA
## 2169 259200.00000000   300.00000000 59430 0.0000000000000
+   32     1  2  3  4  5  6  7  8  9 10 11 12 13 14 15 16 17
+         18 19 20 21 22 23 24 25 26 27 28 29 30 31 32  0  0
+          0  0  0  0  0  0  0  0  0  0  0  0  0  0  0  0  0
+          0  0  0  0  0  0  0  0  0  0  0  0  0  0  0  0  0
+          0  0  0  0  0  0  0  0  0  0  0  0  0  0  0  0  0
++         2  2  2  2  2  2  2  2  2  2  2  2  2  2  2  2  2
++         2  2  2  2  2  2  2  2  2  2  2  2  2  2  2  0  0
++         0  0  0  0  0  0  0  0  0  0  0  0  0  0  0  0  0
++         0  0  0  0  0  0  0  0  0  0  0  0  0  0  0  0  0
++         0  0  0  0  0  0  0  0  0  0  0  0  0  0  0  0  0
%c cc cc ccc ccc cccc cccc cccc cccc ccccc ccccc ccccc ccccc
%c cc cc ccc ccc cccc cccc cccc cccc ccccc ccccc ccccc ccccc
%f  0.0000000  0.000000000  0.00000000000  0.000000000000000
%f  0.0000000  0.000000000  0.00000000000  0.000000000000000
%i    0    0    0    0      0      0      0      0         0
%i    0    0    0    0      0      0      0      0         0
/*      NGA, ST. LOUIS,MO.                                  
/*   EPHEMERIS COMPUTED FROM 2 DAYS OF DATA                 
/*   EPOCHA v6 SMOOTHER                                     
/*   G2139 IERS2010 SATIGS SATAPC                           
*  2021  8  4 15 35  0.00000000
P  1  22484.818002  14439.576796    885.621173    607.621832                    
V  1    204.645575   2277.666534 -32026.697911     -0.113907                    
P  2  -6189.892116 -18376.022561  18775.876122   -624.172218                    
V  2  20329.081813   9794.593708  16949.372317     -0.024585                    
P  3  12175.545622  13983.739335  18962.088049   -242.630140                    
V  3  -2650.942267  24102.676266 -15882.468125     -0.128874                    
P  4  19758.465748   4207.633554  17283.554480   -203.491600                    
V  4 -19201.722033  10682.504395  19295.839840     -0.005049                    
P  5  -7229.286504 -23065.330477 -10970.896676    -50.053567                    
V  5   2912.637004 -13696.840297  27446.280306     -0.012101                    
P  6   6165.722973 -13509.507947  22072.246225     50.565791                    
V  6  23318.546219  15187.545765   2845.652573      0.061171                    
P  7  22588.272110   3463.899611 -13576.425729    217.801359                    
V  7  13469.987278  11661.937085  24232.191178      0.082807                    
P  8  10598.274072  11284.347140 -21624.652592    -31.347411                    
V  8 -24115.697931  12957.668199  -4759.845800     -0.014784                    
P  9  24435.548607  -6016.124167   8471.062175   -357.824464                    
V  9  -8308.326503   7513.030380  29062.430716     -0.011607                    
P 10 -11671.577538  17838.876460 -15547.441335   -175.745530                    
V 10   -845.801722 -20123.699594 -22556.363332     -0.076502                    
P 11  -4399.487109 -19015.967951  17999.810185     29.239872                    
V 11  19301.900757  12407.982521  17803.843317      0.063006                    
P 12 -10981.974505 -14915.198964  18837.274738    -78.194684                    
V 12   4382.969262 -24001.832013 -16105.531527     -0.053466                    
P 13  -1591.823094 -15298.535447 -21777.095679    166.814430                    
V 13  25946.997468  -8552.689418   4279.250930      0.051504                    
P 14  12511.621035 -17932.498055 -15047.661520     31.439106                    
V 14    201.771075  19252.570668 -22828.051532     -0.087301                    
P 15 -12508.096758 -10743.748943 -21239.161685   -130.737857                    
V 15  21616.976961 -14788.920340  -4995.651368      0.026796                    
P 16    453.882770  25620.964039  -6249.413878   -368.235201                    
V 16  -3784.257708   7224.387791  30983.312167     -0.062168                    
P 17  22214.827777 -13600.823261   5631.405245    484.265659                    
V 17   6846.412708   -734.524587 -31153.758825      0.058514                    
P 18 -21129.023794  -1106.752334 -16120.086938    335.703957                    
V 18 -15831.295433 -12965.287237  21577.302987     -0.032017                    
P 19  16806.991943 -15608.620246  12982.379395     35.258159                    
V 19  16571.522183  -4134.405403 -26012.413459      0.049709                    
P 20  -1394.517973 -26632.508526   1333.370174    519.829893                    
V 20   3405.871258   1426.138390  31042.428380     -0.001980                    
P 21  20316.314864  16169.122007  -6059.955386    135.314929                    
V 21  -8639.355565  -1937.195530 -30100.251934      0.022110                    
P 22  10969.097277  20162.686343  13715.370548   -546.552961                    
V 22  -1847.988916  17197.786201 -23915.929265      0.094436                    
P 23 -14842.080555   6239.590866 -21136.478362     75.311828                    
V 23    167.853933 -26790.598022  -8096.635012     -0.051235                    
P 24 -21428.817869 -15562.698817  -4207.751740    197.952021                    
V 24   5925.452152   -360.607550 -30302.949578      0.121992                    
P 25 -14937.533228  -2765.116411  21535.303192    185.409352                    
V 25   1663.057644 -27913.822498  -2140.497614      0.065614                    
P 26  -4739.017385  25255.685409   6060.656934    118.726527                    
V 26  -3443.377301  -7896.216849  30201.037081      0.044823                    
P 27   -597.880872  16277.474618 -21081.688947   -173.306431                    
V 27 -23963.936637  11099.633209   9684.940029     -0.057075                    
P 28   9983.595367 -22611.870943  -9423.110944    525.844589                    
V 28    255.811701  12867.699703 -28751.963086     -0.067724                    
P 29 -24385.230831   2735.959974  10193.872669   -391.005378                    
V 29  11286.660477  -6634.386845  28583.102163     -0.059093                    
P 30  15154.113150  -7744.143291 -20372.613032   -458.525139                    
V 30  20863.842370  15652.023871   9299.478460     -0.042119                    
P 31  -5028.866014  14844.193454  21297.453686   -132.436475                    
V 31 -22864.290261 -15007.829063   5499.114427     -0.020873                    
P 32 -19641.502773  16070.986211   7642.123810      9.991713                    
V 32  -9847.781656   1824.505436 -29763.328558     -0.024977                    
EOF
